OBJECT_NAME,OBJECT_ID,EPOCH,MEAN_MOTION,ECCENTRICITY,INCLINATION,RA_OF_ASC_NODE,ARG_OF_PERICENTER,MEAN_ANOMALY,EPHEMERIS_TYPE,CLASSIFICATION_TYPE,NORAD_CAT_ID,ELEMENT_SET_NO,REV_AT_EPOCH,BSTAR,MEAN_MOTION_DOT,MEAN_MOTION_DDOT
CUBEBUG-2 (LO-74),2013-066AA,2026-06-30T19:04:32.463552,14.93871723,.00569094,97.8910,130.8314,344.0423,15.9001,0,U,39440,999,67902,.43003152E-3,.4655E-4,0
FUNCUBE-1 (AO-73),2013-066AE,2026-07-01T04:12:41.370048,15.09659489,.0037168,97.8284,153.9150,153.3577,206.9572,0,U,39444,999,68177,.51101E-3,.8294E-4,0
UWE-3,2013-066AG,2026-07-01T02:49:51.629088,14.97129431,.0047061,97.8711,138.2876,273.5839,86.0001,0,U,39446,999,67966,.31423E-3,.3646E-4,0
UNISAT-6,2014-033C,2026-07-01T04:26:21.279264,14.88314396,.0045357,97.7893,334.6514,24.1064,336.2262,0,U,40012,999,64824,.32734E-3,.3029E-4,0
DUCHIFAT-1,2014-033M,2026-07-01T03:26:35.594592,15.67620860,.0000268,98.0443,243.2952,112.8439,247.2848,0,U,40021,999,65793,.15174E-2,.168213E-2,0
QB50P1,2014-033R,2026-06-30T23:44:53.517120,15.18468022,.0009267,98.0957,194.1047,167.8824,192.2633,0,U,40025,999,65512,.48959E-3,.10029E-3,0
LILACSAT-2,2015-049K,2026-07-01T04:50:48.719328,15.51907405,.0006988,97.4624,219.5789,185.9115,174.2056,0,U,40908,999,59792,.35196E-3,.2105E-3,0
FOX-1A (AO-85),2015-058D,2026-06-30T18:24:50.359392,14.91024498,.0131307,64.7740,236.7799,51.3115,309.9655,0,U,40967,999,11559,.18979989E-3,.204E-4,0
CAS-2T & KS-1Q,2016-066G,2026-06-30T22:53:37.252896,14.44738747,.0342823,98.3818,257.5327,87.8545,276.1857,0,U,41847,999,50678,.23741E-3,.1649E-4,0
RADFXSAT (FOX-1B),2017-073E,2026-07-01T02:21:18.946080,15.12903471,.014828,97.4684,49.0290,280.7122,77.7444,0,U,43017,999,46749,.36284E-3,.8303E-4,0
DIWATA-2B,2018-084H,2026-07-01T04:10:37.110432,15.00511217,.0013104,98.1199,18.9928,126.7639,233.4789,0,U,43678,999,41831,.15585E-3,.1901E-4,0
ES'HAIL 2,2018-090A,2026-07-01T03:53:09.507840,1.00272551,.0002235,0.0185,21.3458,112.4565,229.4901,0,U,43700,999,2781,0,.155E-5,0
FOX-1CLIFF (AO-95),2018-099N,2026-07-01T02:27:36.211680,15.27003797,.0006963,97.4379,242.2993,301.1216,58.9339,0,U,43770,999,41534,.57079E-3,.15079E-3,0
ITASAT,2018-099AE,2026-07-01T02:49:22.032768,15.19228936,.0010924,97.4019,233.3521,307.5729,52.4513,0,U,43786,999,41502,.38456E-3,.8047E-4,0
JY1SAT (JO-97),2018-099AX,2026-07-01T02:55:20.699040,15.34098627,.0005495,97.4125,245.0076,204.3535,155.7449,0,U,43803,999,41576,.69875E-3,.2303E-3,0
UWE-4,2018-111E,2026-07-01T01:28:37.633152,15.46980202,.0004337,97.5854,111.0998,264.5521,95.5233,0,U,43880,999,41292,.77187E-3,.38998E-3,0
TIANYAN 01,2019-093C,2026-07-01T04:19:37.543296,14.86542025,.0014715,97.7535,254.0710,45.4968,314.7448,0,U,44881,999,35349,.88551E-4,.732E-5,0
RS-44 & BREEZE-KM R/B,2019-096E,2026-07-01T03:44:35.352672,12.79748937,.0218548,82.5231,330.4219,111.6488,250.8044,0,U,44909,999,30413,-.57197E-4,-.1E-7,0
SALSAT,2020-068K,2026-07-01T00:16:38.041824,15.29994176,.0007968,97.8843,185.9193,248.9011,111.1377,0,U,46495,999,31747,.33118E-3,.9542E-4,0
XW-3 (CAS-9),2021-131B,2026-07-01T05:11:08.202624,14.41369700,.0005255,98.4993,274.5296,64.4735,295.6997,0,U,50466,999,23713,.14469E-3,.424E-5,0
GREENCUBE (IO-117),2022-080E,2026-06-30T17:23:31.202880,6.42583253,.00089588,70.1437,293.5372,286.6703,73.2973,0,U,53109,999,9293,0,-.3E-7,0
UMKA 1 (RS40S),2023-091G,2026-07-01T04:09:58.135392,15.20981162,.0014118,97.5043,240.8176,74.4118,285.8675,0,U,57172,999,16613,.38143E-3,.8408E-4,0
CUBESX-HSE 3 (RS42S),2023-091N,2026-07-01T03:46:19.831008,15.31567028,.0011147,97.5088,247.9232,50.5636,309.6590,0,U,57178,999,16656,.57052E-3,.17364E-3,0
MONITOR-3 (RS58S),2023-091Q,2026-07-01T03:32:05.779104,15.28123434,.0012397,97.5077,245.6974,57.0381,303.2048,0,U,57180,999,16642,.52319E-3,.14313E-3,0
MONITOR-4 (RS57S),2023-091S,2026-07-01T04:35:06.790848,15.28209669,.0012383,97.5072,245.7135,57.1353,303.1077,0,U,57182,999,16643,.55267E-3,.15166E-3,0
MONITOR-2 (RS39S),2023-091U,2026-07-01T03:31:10.509888,15.19041231,.0012523,97.5065,240.3397,68.6267,291.6302,0,U,57184,999,16607,.28624E-3,.594E-4,0
SVYATOBOR 1 (RS60S),2023-091X,2026-07-01T03:37:10.506720,15.26852159,.0010168,97.5084,246.0464,51.6805,308.5347,0,U,57187,999,16644,.44109E-3,.11585E-3,0
VIZARD-METEO (RS38S),2023-091Z,2026-07-01T03:38:47.713632,15.36469558,.0007068,97.5089,251.9202,32.9666,327.2017,0,U,57189,999,16683,.62509E-3,.22214E-3,0
POLYTECH-UNIVERSE 3 (RS46S),2023-091AB,2026-07-01T04:07:38.959680,15.19249145,.0016974,97.5040,239.8691,82.6859,277.6304,0,U,57191,999,16607,.34021E-3,.7129E-4,0
UTMN 2 (RS27S),2023-091AP,2026-07-01T04:00:44.345088,15.32392784,.0008246,97.5083,249.5842,40.3265,319.8586,0,U,57203,999,16668,.53689E-3,.16747E-3,0
