CUBEBUG-2 (LO-74)       
1 39440U 13066AA  26181.79482018  .00004655  00000+0  43003-3 0  9995
2 39440  97.8910 130.8314 0056909 344.0423  15.9001 14.93871723679020
FUNCUBE-1 (AO-73)       
1 39444U 13066AE  26182.17547882  .00008294  00000+0  51101-3 0  9994
2 39444  97.8284 153.9150 0037168 153.3577 206.9572 15.09659489681770
UWE-3                   
1 39446U 13066AG  26182.11795867  .00003646  00000+0  31423-3 0  9999
2 39446  97.8711 138.2876 0047061 273.5839  86.0001 14.97129431679661
UNISAT-6                
1 40012U 14033C   26182.18496851  .00003029  00000+0  32734-3 0  9994
2 40012  97.7893 334.6514 0045357  24.1064 336.2262 14.88314396648244
DUCHIFAT-1              
1 40021U 14033M   26182.14346753  .00168213  00000+0  15174-2 0  9990
2 40021  98.0443 243.2952 0000268 112.8439 247.2848 15.67620860657934
QB50P1                  
1 40025U 14033R   26181.98950830  .00010029  00000+0  48959-3 0  9991
2 40025  98.0957 194.1047 0009267 167.8824 192.2633 15.18468022655129
LILACSAT-2              
1 40908U 15049K   26182.20195277  .00021050  00000+0  35196-3 0  9996
2 40908  97.4624 219.5789 0006988 185.9115 174.2056 15.51907405597921
FOX-1A (AO-85)          
1 40967U 15058D   26181.76724953  .00002040  00000+0  18980-3 0  9990
2 40967  64.7740 236.7799 0131307  51.3115 309.9655 14.91024498115590
CAS-2T & KS-1Q          
1 41847U 16066G   26181.95390339  .00001649  00000+0  23741-3 0  9991
2 41847  98.3818 257.5327 0342823  87.8545 276.1857 14.44738747506784
RADFXSAT (FOX-1B)       
1 43017U 17073E   26182.09813595  .00008303  00000+0  36284-3 0  9991
2 43017  97.4684  49.0290 0148280 280.7122  77.7444 15.12903471467490
DIWATA-2B               
1 43678U 18084H   26182.17404063  .00001901  00000+0  15585-3 0  9990
2 43678  98.1199  18.9928 0013104 126.7639 233.4789 15.00511217418313
ES'HAIL 2               
1 43700U 18090A   26182.16191560  .00000155  00000+0  00000+0 0  9999
2 43700   0.0185  21.3458 0002235 112.4565 229.4901  1.00272551 27817
FOX-1CLIFF (AO-95)      
1 43770U 18099N   26182.10250245  .00015079  00000+0  57079-3 0  9998
2 43770  97.4379 242.2993 0006963 301.1216  58.9339 15.27003797415346
ITASAT                  
1 43786U 18099AE  26182.11761612  .00008047  00000+0  38456-3 0  9996
2 43786  97.4019 233.3521 0010924 307.5729  52.4513 15.19228936415026
JY1SAT (JO-97)          
1 43803U 18099AX  26182.12176735  .00023030  00000+0  69875-3 0  9991
2 43803  97.4125 245.0076 0005495 204.3535 155.7449 15.34098627415760
UWE-4                   
1 43880U 18111E   26182.06154668  .00038998  00000+0  77187-3 0  9999
2 43880  97.5854 111.0998 0004337 264.5521  95.5233 15.46980202412926
TIANYAN 01              
1 44881U 19093C   26182.18029564  .00000732  00000+0  88551-4 0  9993
2 44881  97.7535 254.0710 0014715  45.4968 314.7448 14.86542025353498
RS-44 & BREEZE-KM R/B   
1 44909U 19096E   26182.15596473 -.00000001  00000+0 -57197-4 0  9995
2 44909  82.5231 330.4219 0218548 111.6488 250.8044 12.79748937304139
SALSAT                  
1 46495U 20068K   26182.01155141  .00009542  00000+0  33118-3 0  9999
2 46495  97.8843 185.9193 0007968 248.9011 111.1377 15.29994176317476
XW-3 (CAS-9)            
1 50466U 21131B   26182.21606716  .00000424  00000+0  14469-3 0  9993
2 50466  98.4993 274.5296 0005255  64.4735 295.6997 14.41369700237134
GREENCUBE (IO-117)      
1 53109U 22080E   26181.72466670 -.00000003  00000+0  00000+0 0  9998
2 53109  70.1437 293.5372 0008958 286.6703  73.2973  6.42583253 92937
UMKA 1 (RS40S)          
1 57172U 23091G   26182.17358953  .00008408  00000+0  38143-3 0  9998
2 57172  97.5043 240.8176 0014118  74.4118 285.8675 15.20981162166133
CUBESX-HSE 3 (RS42S)    
1 57178U 23091N   26182.15717397  .00017364  00000+0  57052-3 0  9994
2 57178  97.5088 247.9232 0011147  50.5636 309.6590 15.31567028166569
MONITOR-3 (RS58S)       
1 57180U 23091Q   26182.14728911  .00014313  00000+0  52319-3 0  9992
2 57180  97.5077 245.6974 0012397  57.0381 303.2048 15.28123434166423
MONITOR-4 (RS57S)       
1 57182U 23091S   26182.19105082  .00015166  00000+0  55267-3 0  9999
2 57182  97.5072 245.7135 0012383  57.1353 303.1077 15.28209669166432
MONITOR-2 (RS39S)       
1 57184U 23091U   26182.14664942  .00005940  00000+0  28624-3 0  9997
2 57184  97.5065 240.3397 0012523  68.6267 291.6302 15.19041231166075
SVYATOBOR 1 (RS60S)     
1 57187U 23091X   26182.15081605  .00011585  00000+0  44109-3 0  9998
2 57187  97.5084 246.0464 0010168  51.6805 308.5347 15.26852159166445
VIZARD-METEO (RS38S)    
1 57189U 23091Z   26182.15194113  .00022214  00000+0  62509-3 0  9994
2 57189  97.5089 251.9202 0007068  32.9666 327.2017 15.36469558166832
POLYTECH-UNIVERSE 3 (R*)
1 57191U 23091AB  26182.17197870  .00007129  00000+0  34021-3 0  9998
2 57191  97.5040 239.8691 0016974  82.6859 277.6304 15.19249145166073
UTMN 2 (RS27S)          
1 57203U 23091AP  26182.16717992  .00016747  00000+0  53689-3 0  9991
2 57203  97.5083 249.5842 0008246  40.3265 319.8586 15.32392784166686
